[{"OBJECT_NAME":"ONEWEB-0050","OBJECT_ID":"2020-020AF","EPOCH":"2026-03-09T21:25:12.459648","MEAN_MOTION":14.90004194,"ECCENTRICITY":0.00029804,"INCLINATION":88.9205,"RA_OF_ASC_NODE":246.7269,"ARG_OF_PERICENTER":19.3816,"MEAN_ANOMALY":340.7526,"EPHEMERIS_TYPE":0,"CLASSIFICATION_TYPE":"U","NORAD_CAT_ID":45453,"ELEMENT_SET_NO":999,"REV_AT_EPOCH":32559,"BSTAR":0.00024442233,"MEAN_MOTION_DOT":2.377e-5,"MEAN_MOTION_DDOT":0},{"OBJECT_NAME":"SL-8 DEB","OBJECT_ID":"1971-035D","EPOCH":"2026-03-09T10:28:58.724256","MEAN_MOTION":14.87990377,"ECCENTRICITY":0.00112452,"INCLINATION":74.0233,"RA_OF_ASC_NODE":65.1761,"ARG_OF_PERICENTER":261.7291,"MEAN_ANOMALY":98.2615,"EPHEMERIS_TYPE":0,"CLASSIFICATION_TYPE":"U","NORAD_CAT_ID":5301,"ELEMENT_SET_NO":999,"REV_AT_EPOCH":89709,"BSTAR":0.00081035452,"MEAN_MOTION_DOT":7.416e-5,"MEAN_MOTION_DDOT":0}]
